ZHUHAI-1 01 (CAS-4A)    
1 42761U 17034D   24017.39347338  .00016379  00000+0  69777-3 0  9993
2 42761  43.0136 359.0743 0010684  58.8757 301.3140 15.22676778364229
CARTOSAT-2E             
1 42767U 17036C   24017.58632427  .00008929  00000+0  42588-3 0  9991
2 42767  97.4615  79.0597 0006251 152.2637 207.8932 15.19297890364293
FORMOSAT-5              
1 42920U 17049A   24017.54226321  .00000558  00000+0  15284-3 0  9997
2 42920  98.3053  97.3855 0009526 275.3608  84.6499 14.50806600338832
SENTINEL-5P             
1 42969U 17064A   24017.43286702  .00000219  00000+0  12446-3 0  9995
2 42969  98.7271 318.9339 0001553  96.7150 263.4203 14.19551140324464
SKYSAT-C11              
1 42987U 17068A   24016.90268183  .00019109  00000+0  58892-3 0  9996
2 42987  97.3405 143.4250 0005099 115.4956 244.6815 15.33641204347264
SKYSAT-C10              
1 42988U 17068B   24016.90603075  .00018134  00000+0  59663-3 0  9994
2 42988  97.3478 144.1858 0003251 262.5141  97.5732 15.31564794347297
SKYSAT-C9               
1 42989U 17068C   24017.31491402  .00019276  00000+0  61947-3 0  9996
2 42989  97.3407 142.8537 0022593 136.0336 224.2708 15.32060448347526
SKYSAT-C8               
1 42990U 17068D   24017.54566089  .00017187  00000+0  58702-3 0  9991
2 42990  97.3501 144.6039 0004312  77.4129 282.7594 15.30361850347360
SKYSAT-C7               
1 42991U 17068E   24017.35645450  .00017654  00000+0  59660-3 0  9994
2 42991  97.3500 144.7291 0003559 144.2218 215.9262 15.30703013347355
SKYSAT-C6               
1 42992U 17068F   24017.31849925  .00016754  00000+0  56792-3 0  9997
2 42992  97.3528 145.6353 0006707  82.9898 277.2105 15.30599525347386
CARTOSAT-2F             
1 43111U 18004A   24017.61941440  .00008414  00000+0  40086-3 0  9993
2 43111  97.4549  79.3433 0002547 153.2627 206.8739 15.19371931333489
GAOFEN-1 02             
1 43259U 18031A   24017.58320786  .00003149  00000+0  45864-3 0  9995
2 43259  97.8405  89.6596 0002954 318.5844  41.5142 14.76536425312606
GAOFEN-1 03             
1 43260U 18031B   24017.56151893  .00001992  00000+0  29276-3 0  9999
2 43260  97.8399  89.5696 0005451  29.7634 330.3885 14.76544777312593
GAOFEN-1 04             
1 43262U 18031D   24017.60475668  .00000903  00000+0  13663-3 0  9999
2 43262  97.8412  89.7022 0003849 356.9477   3.1709 14.76534383312597
SENTINEL-3B             
1 43437U 18039A   24017.16588292  .00000256  00000+0  12387-3 0  9993
2 43437  98.6187  86.1977 0000936  78.3121 281.8164 14.26742833298357
GAOFEN-5 01             
1 43461U 18043A   24017.43755296  .00001150  00000+0  25611-3 0  9993
2 43461  98.3377 327.1091 0001008 336.0146  24.1006 14.58821811303044
GAOFEN-6                
1 43484U 18048A   24017.57548913  .00001812  00000+0  26696-3 0  9993
2 43484  97.8803  95.7925 0011279 138.5764 221.6303 14.76514205303290
GAOFEN-11 01            
1 43585U 18063A   24017.56599840  .00011118  00000+0  42166-3 0  9996
2 43585  97.2538  87.5756 0007287 291.8810  68.1654 15.27004673304598
ICESAT-2                
1 43613U 18070A   24017.61296105  .00005567  00000+0  20180-3 0  9993
2 43613  91.9941  53.9213 0001983 319.2728  40.8373 15.28335703297828
HYSIS                   
1 43719U 18096A   24017.47864571  .00002468  00000+0  34286-3 0  9999
2 43719  97.8873  84.6254 0003058 105.3302 254.8248 14.78752651277125
KAZSTSAT                
1 43783U 18099AB  24017.15906193  .00002570  00000+0  23525-3 0  9993
2 43783  97.5512  73.8255 0008837 126.4299 233.7739 14.95773171279259
SAUDISAT 5A             
1 43831U 18102A   24017.58892676  .00006756  00000+0  37530-3 0  9990
2 43831  97.4298  86.9302 0012549 351.5658   8.5361 15.13968317281640
SAUDISAT 5B             
1 43833U 18102C   24017.62261417  .00006777  00000+0  37040-3 0  9999
2 43833  97.4336  88.5557 0013413 355.3203   4.7902 15.14539735281721
GAOFEN-10R              
1 44622U 19066A   24017.61587180  .00003090  00000+0  39144-3 0  9995
2 44622  97.9508 320.2308 0000828 221.0687 139.0464 14.82501843231751
CARTOSAT-3              
1 44804U 19081A   24017.61757409  .00006733  00000+0  32368-3 0  9995
2 44804  97.5572  75.6036 0012272 354.0087   6.0998 15.19082686229624
GAOFEN-12 01            
1 44819U 19082A   24017.58947745  .00001033  00000+0  13986-3 0  9995
2 44819  97.8315  35.2431 0001627  92.0636 268.0763 14.81019432223632
CSG-1                   
1 44873U 19092A   24017.36389969  .00001651  00000+0  21382-3 0  9995
2 44873  97.8830 202.7492 0001445  82.4543 277.6834 14.82172767220858
NUSAT-6 (HYPATIA)       
1 46272U 20061A   24017.59058034  .00044339  00000+0  87666-3 0  9996
2 46272  97.2537  90.3869 0004292 147.3430 212.8086 15.46981461187941
NEMO-HD                 
1 46277U 20061F   24017.54424900  .00008939  00000+0  37598-3 0  9990
2 46277  97.3201  83.9087 0001097  27.1531 332.9764 15.23620105186836
SENTINEL-6              
1 46984U 20086A   24017.60817862 -.00000037  00000+0  10504-3 0  9992
2 46984  66.0402 166.1000 0007688 269.6840  90.3294 12.80930242147414
GAOFEN-12 02            
1 48079U 21026A   24017.57021506  .00001204  00000+0  16260-3 0  9993
2 48079  97.9401  10.5811 0001195  61.3557 298.7775 14.80902767151308
PLEIADES NEO 3          
1 48268U 21034A   24017.54925348  .00002536  00000+0  32882-3 0  9993
2 48268  97.8949  93.9664 0001130  90.2514 269.8828 14.81669327147102
NUSAT-19 (ROSALIND)     
1 48905U 21059AC  24017.57317903  .00037267  00000+0  96574-3 0  9990
2 48905  97.5734 163.0676 0005817 190.9966 169.1153 15.38923602142421
PLEIADES NEO 4          
1 49070U 21073E   24017.38040823  .00002166  00000+0  28183-3 0  9994
2 49070  97.8947  93.7958 0001235  83.7510 276.3844 14.81671769130796
LANDSAT 9               
1 49260U 21088A   24017.61775642  .00000883  00000+0  20608-3 0  9999
2 49260  98.2069  89.6771 0001067  88.5784 271.5537 14.57117617122622
CSG-2                   
1 51444U 22008A   24017.60020369  .00000597  00000+0  81609-4 0  9998
2 51444  97.8858 202.9806 0001475  85.9914 274.1468 14.82147729106009
INS-2TD                 
1 51658U 22013C   24017.61791934  .00032265  00000+0  10385-2 0  9993
2 51658  97.5362  37.0268 0006825 349.4870  10.6228 15.32137502106703
GAOFEN-12 03            
1 52912U 22069A   24017.61839336  .00003171  00000+0  41451-3 0  9990
2 52912  97.9286 270.4891 0001377  71.9894 288.1468 14.81156142 84179
SWOT                    
1 54754U 22173A   24017.52875171  .00000207  00000+0  14214-3 0  9993
2 54754  77.6106 145.4590 0000296 299.6916  60.4206 14.00167920 55762
GAOFEN-12 04            
1 57654U 23123A   24017.58981356  .00003070  00000+0  40215-3 0  9991
2 57654  97.9113 297.0338 0002317  40.6818 319.4567 14.81080462 22183
